OBJECT_NAME,OBJECT_ID,EPOCH,MEAN_MOTION,ECCENTRICITY,INCLINATION,RA_OF_ASC_NODE,ARG_OF_PERICENTER,MEAN_ANOMALY,EPHEMERIS_TYPE,CLASSIFICATION_TYPE,NORAD_CAT_ID,ELEMENT_SET_NO,REV_AT_EPOCH,BSTAR,MEAN_MOTION_DOT,MEAN_MOTION_DDOT
SL-16 R/B,1994-077B,2026-06-15T06:48:11.960928,14.15571751,.00028439,70.9808,147.1674,329.2161,30.8795,0,U,23405,999,63004,.17717153E-4,-.13E-6,0
ARIANE 40+ R/B,1995-021B,2026-06-15T04:14:29.642208,14.39832278,.00063132,98.4411,236.2806,199.8513,214.4832,0,U,23561,999,63327,.83276081E-4,.218E-5,0
SL-16 R/B,1995-058B,2026-06-15T05:23:17.440224,14.15507287,.00136595,71.0218,335.4792,323.2089,36.8095,0,U,23705,999,58165,.15921383E-3,.264E-5,0
SL-16 R/B,1996-051B,2026-06-15T04:33:40.275936,14.12445217,.00153054,70.7640,328.8755,339.8928,20.1586,0,U,24298,999,53541,.84405637E-4,.107E-5,0
ORBVIEW 2 (SEASTAR),1997-037A,2026-06-15T01:38:29.410944,14.35552322,.00031447,98.8685,333.0287,120.2279,239.9217,0,U,24883,999,52244,.74489888E-4,.168E-5,0
SL-16 R/B,1998-043G,2026-06-15T02:49:31.747584,14.26068279,.00109343,98.8363,120.2591,91.7201,268.5231,0,U,25400,999,45287,.29462356E-4,.25E-6,0
SL-16 R/B,1998-045B,2026-06-14T21:43:14.819232,14.16204044,.0009495,71.0119,337.1294,244.3390,115.6753,0,U,25407,999,44086,-.93254E-4,-.233E-5,0
ISS (ZARYA),1998-067A,2026-06-15T04:33:23.274144,15.49238068,.00048346,51.6338,309.9786,187.9159,172.1754,0,U,25544,999,57144,.14682976E-3,.7715E-4,0
CZ-4B R/B,1999-025C,2026-06-15T02:10:46.564608,14.18283098,.00381411,98.6484,207.9820,65.5243,348.5871,0,U,25732,999,40197,.44987611E-4,.51E-6,0
OKEAN-O,1999-039A,2026-06-15T04:26:02.472576,14.80464977,.000167,97.9318,225.0056,73.5258,286.6137,0,U,25860,999,44881,.73267393E-4,.508E-5,0
SL-16 R/B,1999-039B,2026-06-15T03:22:50.666016,14.81843453,.00135635,97.9839,225.0097,304.1618,55.8308,0,U,25861,999,45129,.61938009E-4,.436E-5,0
DELTA 2 R/B,1999-041E,2026-06-14T13:21:26.281152,14.12012204,.05008571,51.7658,274.3052,274.2393,80.1479,0,U,25876,999,37671,.15448724E-3,.725E-5,0
HELIOS 1B,1999-064A,2026-06-15T05:29:04.783776,14.88001827,.00024757,98.1618,71.3116,93.8162,266.3336,0,U,25977,999,69976,.13840229E-3,.1212E-4,0
TERRA,1999-068A,2026-06-15T05:36:42.499872,14.61101637,.00014321,97.9457,215.8575,196.7910,207.7502,0,U,25994,999,40932,.75511309E-4,.327E-5,0
SL-16 R/B,2000-006B,2026-06-15T07:10:26.808960,14.15834207,.00154409,71.0022,252.5954,25.8747,334.3145,0,U,26070,999,36237,-.52370406E-4,-.151E-5,0
TITAN 4B R/B,2000-047B,2026-06-15T06:31:44.621472,15.10187312,.00456901,67.9879,125.9637,289.1587,70.4620,0,U,26474,999,40764,.16284517E-3,.2591E-4,0
ENVISAT,2002-009A,2026-06-15T07:33:11.786400,14.39064398,.00013365,98.3834,117.6748,89.0235,36.3180,0,U,27386,999,27321,.33780849E-4,.61E-6,0
IDEFIX & ARIANE 42P R/B,2002-021B,2026-06-15T07:28:52.891392,14.31081276,.00105679,98.5943,103.8151,260.0727,99.9263,0,U,27422,999,25798,.78658293E-4,.163E-5,0
AQUA,2002-022A,2026-06-15T06:47:40.190784,14.62155467,.00011761,98.4277,135.5279,53.2323,50.9789,0,U,27424,999,28299,.13965567E-3,.653E-5,0
CZ-4B R/B,2002-024C,2026-06-15T02:48:48.142368,14.14564054,.00511774,98.8701,218.9509,105.9834,309.3801,0,U,27432,999,24301,.4432019E-4,.42E-6,0
MIDORI II (ADEOS-II),2002-056A,2026-06-15T04:16:20.942688,14.29348609,.00022148,98.7878,125.4208,79.7815,280.3616,0,U,27597,999,22422,.98032959E-4,.204E-5,0
H-2A R/B,2002-056E,2026-06-15T02:49:36.383808,14.33821225,.00690953,98.3311,122.8677,230.8133,139.3795,0,U,27601,999,22807,.66485126E-4,.148E-5,0
CZ-4B R/B,2003-049C,2026-06-14T23:05:19.587264,14.55098860,.00470267,98.6895,164.7200,295.5546,64.0792,0,U,28059,999,20074,.69042567E-4,.25E-5,0
CZ-2C R/B,2004-012C,2026-06-15T04:41:18.254688,15.78647090,.00091811,97.7094,241.6267,291.9610,68.0680,0,U,28222,999,21958,.47829767E-3,.83953E-3,0
SL-16 R/B,2004-021B,2026-06-14T23:15:39.816576,14.14609309,.00073595,71.0011,28.3445,257.4479,102.5820,0,U,28353,999,13659,-.11494603E-3,-.269E-5,0
CZ-4B R/B,2004-035C,2026-06-14T23:24:19.815840,15.30599212,.0030135,97.3364,199.0735,346.0943,13.9465,0,U,28415,999,19478,.25145196E-3,.7464E-4,0
CZ-2C R/B,2004-046B,2026-06-15T05:28:39.351072,14.27026136,.01383876,98.1947,75.1314,226.0950,132.8740,0,U,28480,999,12241,.39254857E-4,.64E-6,0
ARIANE 5 R/B,2004-049H,2026-06-14T23:23:36.132864,14.85446411,.00846494,98.2719,338.1423,36.5368,324.1580,0,U,28499,999,16023,.69737669E-4,.576E-5,0
CZ-2D R/B,2005-024B,2026-06-14T23:42:20.453472,15.69342618,.00036689,97.3480,185.3063,60.3608,299.8019,0,U,28738,999,15499,.43034005E-3,.50365E-3,0
ALOS (DAICHI),2006-002A,2026-06-15T07:41:58.079904,14.70046770,.00015252,98.1323,121.8940,58.2131,301.9223,0,U,28931,999,8782,.15680058E-3,.891E-5,0
